OPTICUBE 04             
1 41851U 16067D   19084.91348197 -.00000387  00000-0 -28500-4 0  9992
2 41851  97.9127 181.5261 0007981 313.4879  46.5678 14.96772922129232
AEROCUBE 8D             
1 41852U 16067E   19085.04423342 -.00000302  00000-0 -21180-4 0  9998
2 41852  97.9141 181.4842 0008674 312.6512  47.3977 14.96661760129236
AEROCUBE 8C             
1 41853U 16067F   19085.19885979  .00000379  00000-0  38540-4 0  9993
2 41853  97.9134 181.5831 0008815 312.1091  47.9380 14.96623282129255
PROMETHEUS 2-1          
1 41854U 16067G   19084.91024928 -.00000179  00000-0 -10276-4 0  9998
2 41854  97.9147 181.3899 0009324 313.2969  46.7473 14.96814886129212
PROMETHEUS 2-3          
1 41855U 16067H   19084.91285407 -.00000116  00000-0 -47797-5 0  9990
2 41855  97.9149 181.4051 0009540 313.2954  46.7470 14.96817725129212
INS-1B                  
1 41954U 17008G   19085.11477825  .00001279  00000-0  56139-4 0  9994
2 41954  97.4088 151.2386 0010956  85.0875 275.1612 15.23714327116929
BGUSAT                  
1 41999U 17008BD  19085.21493179  .00002112  00000-0  85574-4 0  9996
2 41999  97.4149 153.3606 0009983  97.9906 262.2465 15.25729572116416
DIDO-2                  
1 42000U 17008BE  19084.90586667  .00000720  00000-0  32890-4 0  9996
2 42000  97.4101 151.5664 0010260 101.3848 258.8542 15.23729627116299
PEASSS                  
1 42015U 17008BV  19085.11887688  .00001190  00000-0  51052-4 0  9996
2 42015  97.4106 152.6048 0008121 105.1994 255.0142 15.24649753116865
AL-FARABI 1             
1 42016U 17008BW  19084.88885626  .00001486  00000-0  61997-4 0  9997
2 42016  97.4119 152.8239 0007981 105.4698 254.7422 15.25225205116973
NAYIF-1 (EO-88)         
1 42017U 17008BX  19085.14055635  .00001529  00000-0  63664-4 0  9998
2 42017  97.4116 153.0825 0007970 104.8644 255.3477 15.25256661117032
PHOENIX                 
1 42706U 98067LP  19085.13358188  .00140301  18471-4  42646-3 0  9998
2 42706  51.6250 341.7054 0004220 186.9584 173.1365 15.91779836106406
ALTAIR PATHFINDER       
1 42711U 98067LS  19085.17043640  .00035910  00000-0  24054-3 0  9999
2 42711  51.6346   6.3127 0004011 155.5023 204.6167 15.74894038105740
SHARC                   
1 42712U 98067LT  19085.13809294  .00164605  21028-4  53302-3 0  9990
2 42712  51.6289 358.5170 0004787 169.8136 190.2968 15.90476425106081
ZA-AEROSAT              
1 42713U 98067LU  19084.94826227  .00098235  00000-0  34594-3 0  9994
2 42713  51.6318 348.8510 0004292 170.5967 189.5119 15.88344447105956
CSUNSAT1                
1 42715U 98067LW  19085.16175904  .00138705  18508-4  38395-3 0  9996
2 42715  51.6277 343.4533 0005257 183.9757 176.1210 15.93561864106040
NJUST-1                 
1 42722U 98067MB  19085.13397221  .00052849  00000-0  23778-3 0  9996
2 42722  51.6370 353.6655 0004379 184.1199 317.4616 15.83528273104973
LILACSAT-1 (LO-90)      
1 42725U 98067ME  19085.20332666  .01540248  11907-4  63070-3 0  9996
2 42725  51.6207 333.7568 0008481 243.0513 116.9908 16.22482775105157
NSIGHT                  
1 42726U 98067MF  19084.84648240  .00019387  00000-0  17674-3 0  9995
2 42726  51.6385  21.6336 0004553 193.5835 166.5040 15.67906490104490
SNUSAT-1B               
1 42727U 98067MG  19085.17728698  .00842165  45537-3  58003-3 0  9995
2 42727  51.6186 334.9886 0008948 227.9257 132.1006 16.15849758105097
SNUSAT-1                
1 42733U 98067MN  19073.81661424  .22721454  12576-4  28234-3 0  9995
2 42733  51.6021  29.3648 0005433 200.7020 239.9908 16.49371243103244
BEEAGLESAT              
1 42736U 98067MR  19085.08734145  .00173485  23012-4  42185-3 0  9990
2 42736  51.6277 342.1051 0005698 206.8194 153.2520 15.95878650104946
UCLSAT                  
1 42765U 17036A   19085.15551246  .00001251  00000-0  56885-4 0  9998
2 42765  97.3615 144.9359 0012172 159.3884 200.7845 15.22520723 97600
LITUANICASAT-2          
1 42768U 17036D   19085.19905008  .00001999  00000-0  89195-4 0  9993
2 42768  97.3647 144.5451 0016239 151.9272 208.2844 15.22428583 97450
AALTO-1                 
1 42775U 17036L   19084.74444542  .00000813  00000-0  39429-4 0  9991
2 42775  97.3604 143.4725 0014862 152.5013 207.7013 15.21185631 97290
URSA MAIOR              
1 42776U 17036M   19084.84381859  .00000867  00000-0  41702-4 0  9990
2 42776  97.3612 143.6907 0014718 152.1045 208.0983 15.21307095 97318
COMPASS 2               
1 42777U 17036N   19084.76448866  .00001557  00000-0  69868-4 0  9994
2 42777  97.3647 144.5647 0013501 153.4071 206.7861 15.22594991 97347
DIAMOND RED             
1 42783U 17036U   19084.77699630  .00000994  00000-0  46482-4 0  9990
2 42783  97.3617 144.2340 0012804 161.7119 198.4581 15.22011187 97334
PEGASUS                 
1 42784U 17036V   19084.77177286  .00001100  00000-0  50698-4 0  9993
2 42784  97.3621 144.4083 0012708 161.4924 198.6777 15.22280528 97347
DIAMOND GREEN           
1 42785U 17036W   19084.84155721  .00001008  00000-0  47087-4 0  9997
2 42785  97.3620 144.3187 0012699 162.0318 198.1370 15.22010474 97417
DIAMOND BLUE            
1 42786U 17036X   19084.84055958  .00001000  00000-0  46748-4 0  9994
2 42786  97.3619 144.3167 0012532 162.1725 197.9953 15.22010247 97415
NUDTSAT                 
1 42787U 17036Y   19085.21464501  .00001608  00000-0  71004-4 0  9992
2 42787  97.3666 145.3876 0010444 157.0485 203.1222 15.23140530 97286
SUCHAI                  
1 42788U 17036Z   19084.73521994  .00001312  00000-0  59269-4 0  9990
2 42788  97.3625 144.6159 0012307 160.7343 199.4361 15.22656357 97427
SKCUBE                  
1 42789U 17036AA  19084.74586761  .00001246  00000-0  56588-4 0  9992
2 42789  97.3621 144.5852 0012165 160.6847 199.4853 15.22573301 97347
VZLUSAT-1               
1 42790U 17036AB  19084.74174169  .00001654  00000-0  72897-4 0  9993
2 42790  97.3633 144.9264 0011785 159.8850 200.2854 15.23146496 97360
ROBUSTA-1B              
1 42792U 17036AD  19084.68583866  .00001241  00000-0  56097-4 0  9992
2 42792  97.3621 144.6523 0011728 161.3142 198.8527 15.22736293 97350
CICERO 6                
1 42793U 17036AE  19084.79100647  .00000904  00000-0  42080-4 0  9999
2 42793  97.3606 144.6069 0010896 161.9056 198.2570 15.22404469 97432
D-SAT                   
1 42794U 17036AF  19084.71550129  .00000200  00000-0  22638-4 0  9992
2 42794  97.5513 133.1043 0128125  65.2271 296.2216 14.91044438 95678
TOKI                    
1 42820U 98067MU  19085.12616192  .00158254  20730-4  43250-3 0  9995
2 42820  51.6276 346.9345 0004905 179.4179 180.6834 15.93748928 98345
MAZAALAI (NUMSAT-1)     
1 42822U 98067MW  19085.15688462  .00133436  17751-4  41130-3 0  9998
2 42822  51.6298 348.7005 0004781 177.0326 183.0710 15.91529558 98304
BRAC ONNESHA            
1 42823U 98067MX  19085.15616543  .00141048  18652-4  40878-3 0  9997
2 42823  51.6271 347.9160 0005838 181.7301 178.3686 15.92676510 98310
NIGERIAEDUSAT-1         
1 42824U 98067MY  19085.14588875  .00125454  16951-4  39530-3 0  9999
2 42824  51.6305 349.4453 0005567 182.7610 177.3367 15.91126969 98282
CORVUS BC2              
1 42846U 17042X   19084.70427531  .00000094  00000-0  14606-4 0  9993
2 42846  97.5753 342.0481 0009232 348.0011  12.0987 14.91936761 92349
CORVUS BC1              
1 42847U 17042Y   19084.93146190  .00000296  00000-0  34502-4 0  9999
2 42847  97.5753 342.3591 0008867 346.7834  13.3151 14.92036966 92375
SILU-1 (SILKROAD 1)     
1 42903U 17021F   19085.08106447  .00277287  42957-4  35744-3 0  9992
2 42903  42.7689  33.8812 0014848 182.7725 242.0147 16.06136622 94587
MIRATA                  
1 43015U 17073C   19084.83985933  .00001419  00000-0  11508-3 0  9994
2 43015  97.7186   9.3693 0257584  74.3198 288.6270 14.78764399 72758
MAKERSAT 0              
1 43016U 17073D   19084.77367664  .00000977  00000-0  80650-4 0  9996
2 43016  97.7217   9.4965 0259524  74.7931 288.1819 14.78580893 72739
ASTERIA                 
1 43020U 98067NH  19085.14481074  .00022902  00000-0  21542-3 0  9993
2 43020  51.6434  30.5230 0002826 139.6877 220.4329 15.67015169 76585
DELLINGR (RBLE)         
1 43021U 98067NJ  19085.09094673  .00010027  00000-0  12020-3 0  9999
2 43021  51.6399  39.0756 0002906 127.3482 232.7777 15.61610730 76467
AEROCUBE 7B (OCSD B)    
1 43042U 17071F   19084.61026962  .00001546  00000-0  47214-4 0  9991
2 43042  51.6392 108.7073 0004246 202.2268 157.8533 15.40600616 72960
AEROCUBE 7C (OCSD C)    
1 43043U 17071G   19084.93510086  .00003137  00000-0  85610-4 0  9992
2 43043  51.6380 107.1387 0004436 205.9966 154.0796 15.40609136 72983
CHEFSAT                 
1 43044U 17071H   19084.54100144  .00005855  00000-0  14091-3 0  9993
2 43044  51.6381 105.3452 0004073 204.0475 156.0321 15.42772495 72976
ASGARDIA 1              
1 43049U 17071N   19084.56972065  .00002910  00000-0  79789-4 0  9994
2 43049  51.6385 108.4698 0001900 221.7273 138.3568 15.40731657 72934
ISARA                   
1 43050U 17071P   19084.91933719  .00006023  00000-0  14665-3 0  9998
2 43050  51.6376 104.0899 0001599 221.7842 138.3022 15.42358575 73029
PROPCUBE 2 (FAUNA)      
1 43052U 17071R   19084.91399568  .00003484  00000-0  92883-4 0  9995
2 43052  51.6384 106.2853 0001775 217.8679 142.2181 15.40969880 72983
CORVUS BC3              
1 43118U 18004H   19084.90330299  .00000762  00000-0  35732-4 0  9996
2 43118  97.4953 152.5088 0010458 180.2640 179.8593 15.22693599 66571
MICROMAS-2A             
1 43131U 18004W   19084.90983739  .00001828  00000-0  78919-4 0  9992
2 43131  97.4974 153.0232 0009492 181.5652 178.5557 15.23780173 66605
CICERO 7                
1 43143U 18004AJ  19084.81092159  .00001418  00000-0  61563-4 0  9994
2 43143  97.4963 153.1312 0007338 188.9297 171.1810 15.23975242 66603
GOMX-4B                 
1 43196U 18015E   19084.93273966  .00000353  00000-0  17561-4 0  9990
2 43196  97.3768 213.7477 0017632 244.7995 115.1413 15.23841479 63431
